[{"OBJECT_NAME":"MOHAMMED VI-B","OBJECT_ID":"2018-095A","EPOCH":"2026-03-09T22:26:08.360736","MEAN_MOTION":14.77128516,"ECCENTRICITY":0.0001216,"INCLINATION":97.9414,"RA_OF_ASC_NODE":142.6736,"ARG_OF_PERICENTER":91.5089,"MEAN_ANOMALY":268.6261,"EPHEMERIS_TYPE":0,"CLASSIFICATION_TYPE":"U","NORAD_CAT_ID":43717,"ELEMENT_SET_NO":999,"REV_AT_EPOCH":39353,"BSTAR":0.00010160922,"MEAN_MOTION_DOT":6.68e-6,"MEAN_MOTION_DDOT":0},{"OBJECT_NAME":"COSMOS 2251 DEB","OBJECT_ID":"1993-036AFB","EPOCH":"2026-03-08T05:54:15.313248","MEAN_MOTION":14.74863813,"ECCENTRICITY":0.00335216,"INCLINATION":73.9855,"RA_OF_ASC_NODE":242.5503,"ARG_OF_PERICENTER":15.801,"MEAN_ANOMALY":42.6126,"EPHEMERIS_TYPE":0,"CLASSIFICATION_TYPE":"U","NORAD_CAT_ID":34972,"ELEMENT_SET_NO":999,"REV_AT_EPOCH":88910,"BSTAR":0.0023229983,"MEAN_MOTION_DOT":0.00015724,"MEAN_MOTION_DDOT":0}]
